{"type": "FeatureCollection", "features": [{"type": "Feature", "geometry": {"type": "Point", "coordinates": [-12.183596, 12.556291]}, "properties": {"id": "centre_sante-1", "type": "centre_sante", "type_label": "Centre de santé", "nom": "CS KEDOUGOU", "region": {"nom": "KEDOUGOU", "code": 13}, "departement": {"nom": "KEDOUGOU", "code": 131}, "commune": {"nom": "KEDOUGOU", "code": 131101}, "communaute_rurale": {"nom": "KEDOUGOU", "code": 13110100}, "quartier_village": "DANDEMAYO", "milieu": "URBAIN", "thematique": "SANTE", "type_qvh": "QUARTIER"}}, {"type": "Feature", "geometry": {"type": "Point", "coordinates": [-12.819737, 12.635701]}, "properties": {"id": "centre_sante-2", "type": "centre_sante", "type_label": "Centre de santé", "nom": "CS SALEMATA", "region": {"nom": "KEDOUGOU", "code": 13}, "departement": {"nom": "SALEMATA", "code": 132}, "commune": {"nom": "SALEMATA", "code": 132101}, "communaute_rurale": {"nom": "SALEMATA", "code": 13210100}, "quartier_village": "COULOUBA", "milieu": "URBAIN", "thematique": "SANTE", "type_qvh": "QUARTIER"}}, {"type": "Feature", "geometry": {"type": "Point", "coordinates": [-11.770177, 12.833942]}, "properties": {"id": "centre_sante-3", "type": "centre_sante", "type_label": "Centre de santé", "nom": "CS DE SARAYA", "region": {"nom": "KEDOUGOU", "code": 13}, "departement": {"nom": "SARAYA", "code": 133}, "commune": {"nom": "SARAYA", "code": 133101}, "communaute_rurale": {"nom": "SARAYA", "code": 13310100}, "quartier_village": "FOUNSAMBA", "milieu": "URBAIN", "thematique": "SANTE", "type_qvh": "QUARTIER"}}, {"type": "Feature", "geometry": {"type": "Point", "coordinates": [-16.406021, 14.327816]}, "properties": {"id": "centre_sante-4", "type": "centre_sante", "type_label": "Centre de santé", "nom": "CS DE TYPE 1", "region": {"nom": "FATICK", "code": 9}, "departement": {"nom": "FATICK", "code": 91}, "commune": {"nom": "FATICK", "code": 91101}, "communaute_rurale": {"nom": "FATICK", "code": 9110100}, "quartier_village": "ESCALE", "milieu": "URBAIN", "thematique": "SANTE", "type_qvh": "QUARTIER"}}, {"type": "Feature", "geometry": {"type": "Point", "coordinates": [-16.397053, 14.489654]}, "properties": {"id": "centre_sante-5", "type": "centre_sante", "type_label": "Centre de santé", "nom": "CS NIAKHAR", "region": {"nom": "FATICK", "code": 9}, "departement": {"nom": "FATICK", "code": 91}, "commune": {"nom": "NIAKHAR", "code": 91203}, "communaute_rurale": {"nom": "NIAKHAR", "code": 9120302}, "quartier_village": "NIAKHAR", "milieu": "RURAL", "thematique": "SANTE", "type_qvh": "VILLAGE"}}, {"type": "Feature", "geometry": {"type": "Point", "coordinates": [-16.463554, 14.123085]}, "properties": {"id": "centre_sante-6", "type": "centre_sante", "type_label": "Centre de santé", "nom": "CS REFERENCE DE FOUNDIOUGNE", "region": {"nom": "FATICK", "code": 9}, "departement": {"nom": "FOUNDIOUGNE", "code": 92}, "commune": {"nom": "FOUNDIOUGNE", "code": 92101}, "communaute_rurale": {"nom": "FOUNDIOUGNE", "code": 9210100}, "quartier_village": "HLM", "milieu": "URBAIN", "thematique": "SANTE", "type_qvh": "QUARTIER"}}, {"type": "Feature", "geometry": {"type": "Point", "coordinates": [-16.077157, 14.500184]}, "properties": {"id": "centre_sante-7", "type": "centre_sante", "type_label": "Centre de santé", "nom": "CS GOSSAS", "region": {"nom": "FATICK", "code": 9}, "departement": {"nom": "GOSSAS", "code": 93}, "commune": {"nom": "OUADIOUR", "code": 93202}, "communaute_rurale": {"nom": "OUADIOUR", "code": 9320202}, "quartier_village": "KEUR KHAR KANE", "milieu": "RURAL", "thematique": "SANTE", "type_qvh": "VILLAGE"}}, {"type": "Feature", "geometry": {"type": "Point", "coordinates": [-16.722492, 13.85699]}, "properties": {"id": "centre_sante-8", "type": "centre_sante", "type_label": "Centre de santé", "nom": "CS SECONDAIRE DE NIODIOR", "region": {"nom": "FATICK", "code": 9}, "departement": {"nom": "FOUNDIOUGNE", "code": 92}, "commune": {"nom": "NIODIOR", "code": 92202}, "communaute_rurale": {"nom": "DIONEWAR", "code": 9220202}, "quartier_village": "NIODIOR", "milieu": "RURAL", "thematique": "SANTE", "type_qvh": "VILLAGE"}}, {"type": "Feature", "geometry": {"type": "Point", "coordinates": [-16.25759, 13.986591]}, "properties": {"id": "centre_sante-9", "type": "centre_sante", "type_label": "Centre de santé", "nom": "CS PASSY", "region": {"nom": "FATICK", "code": 9}, "departement": {"nom": "FOUNDIOUGNE", "code": 92}, "commune": {"nom": "DJILOR", "code": 92201}, "communaute_rurale": {"nom": "PASSY", "code": 9220106}, "quartier_village": "LEONA", "milieu": "URBAIN", "thematique": "SANTE", "type_qvh": "QUARTIER"}}, {"type": "Feature", "geometry": {"type": "Point", "coordinates": [-14.938133, 12.898773]}, "properties": {"id": "centre_sante-10", "type": "centre_sante", "type_label": "Centre de santé", "nom": "CS KOLDA", "region": {"nom": "KOLDA", "code": 10}, "departement": {"nom": "KOLDA", "code": 101}, "commune": {"nom": "KOLDA", "code": 101101}, "communaute_rurale": {"nom": "KOLDA", "code": 10110100}, "quartier_village": "SIKILO CENTRE OUEST", "milieu": "URBAIN", "thematique": "SANTE", "type_qvh": "QUARTIER"}}, {"type": "Feature", "geometry": {"type": "Point", "coordinates": [-13.769175, 13.159026]}, "properties": {"id": "centre_sante-11", "type": "centre_sante", "type_label": "Centre de santé", "nom": "CS MEDINA GOUNASS", "region": {"nom": "KOLDA", "code": 10}, "departement": {"nom": "VELINGARA", "code": 102}, "commune": {"nom": "BONCONTO", "code": 102201}, "communaute_rurale": {"nom": "MEDINA GOUNASS", "code": 10220103}, "quartier_village": "MEDINA GOUNASS", "milieu": "RURAL", "thematique": "SANTE", "type_qvh": "VILLAGE"}}, {"type": "Feature", "geometry": {"type": "Point", "coordinates": [-14.712173, 13.291402]}, "properties": {"id": "centre_sante-12", "type": "centre_sante", "type_label": "Centre de santé", "nom": "CS MEDINA YORO FOULAH", "region": {"nom": "KOLDA", "code": 10}, "departement": {"nom": "MEDINA YORO FOULAH", "code": 103}, "commune": {"nom": "MEDINA YORO FOULAH", "code": 103101}, "communaute_rurale": {"nom": "MEDINA YORO FOULAH", "code": 10310100}, "quartier_village": "LALY DEME", "milieu": "URBAIN", "thematique": "SANTE", "type_qvh": "QUARTIER"}}, {"type": "Feature", "geometry": {"type": "Point", "coordinates": [-14.106967, 13.144027]}, "properties": {"id": "centre_sante-13", "type": "centre_sante", "type_label": "Centre de santé", "nom": "CS VELINGARA", "region": {"nom": "KOLDA", "code": 10}, "departement": {"nom": "VELINGARA", "code": 102}, "commune": {"nom": "VELINGARA", "code": 102101}, "communaute_rurale": {"nom": "VELINGARA", "code": 10210100}, "quartier_village": "CENTRE", "milieu": "URBAIN", "thematique": "SANTE", "type_qvh": "QUARTIER"}}, {"type": "Feature", "geometry": {"type": "Point", "coordinates": [-15.741258, 14.126522]}, "properties": {"id": "centre_sante-14", "type": "centre_sante", "type_label": "Centre de santé", "nom": "CS BIRKELANE", "region": {"nom": "KAFFRINE", "code": 12}, "departement": {"nom": "BIRKELANE", "code": 122}, "commune": {"nom": "BIRKELANE", "code": 122101}, "communaute_rurale": {"nom": "BIRKELANE", "code": 12210100}, "quartier_village": "GADGA ESCALE", "milieu": "URBAIN", "thematique": "SANTE", "type_qvh": "QUARTIER"}}, {"type": "Feature", "geometry": {"type": "Point", "coordinates": [-15.290021, 14.084616]}, "properties": {"id": "centre_sante-15", "type": "centre_sante", "type_label": "Centre de santé", "nom": "CS MALEM HODAR", "region": {"nom": "KAFFRINE", "code": 12}, "departement": {"nom": "MALEM HODDAR", "code": 124}, "commune": {"nom": "MALEM HODDAR", "code": 124101}, "communaute_rurale": {"nom": "MALEM HODDAR", "code": 12410100}, "quartier_village": "GUINAW RAIL", "milieu": "URBAIN", "thematique": "SANTE", "type_qvh": "QUARTIER"}}, {"type": "Feature", "geometry": {"type": "Point", "coordinates": [-14.791874, 13.981459]}, "properties": {"id": "centre_sante-16", "type": "centre_sante", "type_label": "Centre de santé", "nom": "CS KOUNGHEUL", "region": {"nom": "KAFFRINE", "code": 12}, "departement": {"nom": "KOUNGHEUL", "code": 123}, "commune": {"nom": "KOUNGHEUL", "code": 123101}, "communaute_rurale": {"nom": "KOUNGHEUL", "code": 12310100}, "quartier_village": "KOUNGHUEL VILLE 2", "milieu": "URBAIN", "thematique": "SANTE", "type_qvh": "QUARTIER"}}, {"type": "Feature", "geometry": {"type": "Point", "coordinates": [-15.550198, 14.10726]}, "properties": {"id": "centre_sante-17", "type": "centre_sante", "type_label": "Centre de santé", "nom": "CS KAFFRINE", "region": {"nom": "KAFFRINE", "code": 12}, "departement": {"nom": "KAFFRINE", "code": 121}, "commune": {"nom": "KAFFRINE", "code": 121101}, "communaute_rurale": {"nom": "KAFFRINE", "code": 12110100}, "quartier_village": "MBAMBA", "milieu": "URBAIN", "thematique": "SANTE", "type_qvh": "QUARTIER"}}, {"type": "Feature", "geometry": {"type": "Point", "coordinates": [-15.697925, 13.038391]}, "properties": {"id": "centre_sante-18", "type": "centre_sante", "type_label": "Centre de santé", "nom": "CS BOUNKILING", "region": {"nom": "SEDHIOU", "code": 14}, "departement": {"nom": "BOUNKILING", "code": 142}, "commune": {"nom": "BOUNKILING", "code": 142101}, "communaute_rurale": {"nom": "BOUNKILING", "code": 14210100}, "quartier_village": "SOUBACONO", "milieu": "URBAIN", "thematique": "SANTE", "type_qvh": "QUARTIER"}}, {"type": "Feature", "geometry": {"type": "Point", "coordinates": [-15.882341, 12.566615]}, "properties": {"id": "centre_sante-19", "type": "centre_sante", "type_label": "Centre de santé", "nom": "CS GOUDOMP", "region": {"nom": "SEDHIOU", "code": 14}, "departement": {"nom": "GOUDOMP", "code": 143}, "commune": {"nom": "GOUDOMP", "code": 143101}, "communaute_rurale": {"nom": "GOUDOMP", "code": 14310100}, "quartier_village": "DIOLACOUNDA I", "milieu": "URBAIN", "thematique": "SANTE", "type_qvh": "QUARTIER"}}, {"type": "Feature", "geometry": {"type": "Point", "coordinates": [-15.55303, 12.713582]}, "properties": {"id": "centre_sante-20", "type": "centre_sante", "type_label": "Centre de santé", "nom": "CS SEDHIOU", "region": {"nom": "SEDHIOU", "code": 14}, "departement": {"nom": "SEDHIOU", "code": 141}, "commune": {"nom": "SEDHIOU", "code": 141101}, "communaute_rurale": {"nom": "SEDHIOU", "code": 14110100}, "quartier_village": "KABEUMB", "milieu": "URBAIN", "thematique": "SANTE", "type_qvh": "QUARTIER"}}, {"type": "Feature", "geometry": {"type": "Point", "coordinates": [-16.59959, 13.041702]}, "properties": {"id": "centre_sante-21", "type": "centre_sante", "type_label": "Centre de santé", "nom": "CS DIOULOULOU", "region": {"nom": "ZIGUINCHOR", "code": 2}, "departement": {"nom": "BIGNONA", "code": 21}, "commune": {"nom": "KATABA I", "code": 21204}, "communaute_rurale": {"nom": "DIOULOULOU", "code": 2120404}, "quartier_village": "DOUMASSOU", "milieu": "URBAIN", "thematique": "SANTE", "type_qvh": "QUARTIER"}}, {"type": "Feature", "geometry": {"type": "Point", "coordinates": [-16.547396, 12.489172]}, "properties": {"id": "centre_sante-22", "type": "centre_sante", "type_label": "Centre de santé", "nom": "CS OUSSOUYE", "region": {"nom": "ZIGUINCHOR", "code": 2}, "departement": {"nom": "OUSSOUYE", "code": 22}, "commune": {"nom": "OUSSOUYE", "code": 22101}, "communaute_rurale": {"nom": "OUSSOUYE", "code": 2210100}, "quartier_village": "SOULEUK", "milieu": "URBAIN", "thematique": "SANTE", "type_qvh": "QUARTIER"}}, {"type": "Feature", "geometry": {"type": "Point", "coordinates": [-16.231174, 12.809985]}, "properties": {"id": "centre_sante-23", "type": "centre_sante", "type_label": "Centre de santé", "nom": "CS BIGNONA", "region": {"nom": "ZIGUINCHOR", "code": 2}, "departement": {"nom": "BIGNONA", "code": 21}, "commune": {"nom": "BIGNONA", "code": 21101}, "communaute_rurale": {"nom": "BIGNONA", "code": 2110100}, "quartier_village": "MEDINA PLATEAU", "milieu": "URBAIN", "thematique": "SANTE", "type_qvh": "QUARTIER"}}, {"type": "Feature", "geometry": {"type": "Point", "coordinates": [-16.275736, 12.585012]}, "properties": {"id": "centre_sante-24", "type": "centre_sante", "type_label": "Centre de santé", "nom": "HOPITAL SILENCE (CS  ZIGUINCHOR)", "region": {"nom": "ZIGUINCHOR", "code": 2}, "departement": {"nom": "ZIGUINCHOR", "code": 23}, "commune": {"nom": "ZIGUINCHOR", "code": 23101}, "communaute_rurale": {"nom": "ZIGUINCHOR", "code": 2310100}, "quartier_village": "BOUDODY ESCALE", "milieu": "URBAIN", "thematique": "SANTE", "type_qvh": "QUARTIER"}}, {"type": "Feature", "geometry": {"type": "Point", "coordinates": [-16.726556, 12.92684]}, "properties": {"id": "centre_sante-25", "type": "centre_sante", "type_label": "Centre de santé", "nom": "CS KAFOUNTINE", "region": {"nom": "ZIGUINCHOR", "code": 2}, "departement": {"nom": "BIGNONA", "code": 21}, "commune": {"nom": "KATABA I", "code": 21204}, "communaute_rurale": {"nom": "KAFOUNTINE", "code": 2120402}, "quartier_village": "KAFOUNTINE", "milieu": "RURAL", "thematique": "SANTE", "type_qvh": "VILLAGE"}}, {"type": "Feature", "geometry": {"type": "Point", "coordinates": [-16.624253, 13.099489]}, "properties": {"id": "centre_sante-26", "type": "centre_sante", "type_label": "Centre de santé", "nom": "CS KATABA", "region": {"nom": "ZIGUINCHOR", "code": 2}, "departement": {"nom": "BIGNONA", "code": 21}, "commune": {"nom": "KATABA I", "code": 21204}, "communaute_rurale": {"nom": "KATABA I", "code": 2120403}, "quartier_village": "KOULOBORY", "milieu": "RURAL", "thematique": "SANTE", "type_qvh": "VILLAGE"}}, {"type": "Feature", "geometry": {"type": "Point", "coordinates": [-16.302365, 12.77092]}, "properties": {"id": "centre_sante-27", "type": "centre_sante", "type_label": "Centre de santé", "nom": "CS DISTRICT SANITAIRE", "region": {"nom": "ZIGUINCHOR", "code": 2}, "departement": {"nom": "BIGNONA", "code": 21}, "commune": {"nom": "TENGHORY", "code": 21203}, "communaute_rurale": {"nom": "TENGHORY", "code": 2120304}, "quartier_village": "TENDIMANE", "milieu": "RURAL", "thematique": "SANTE", "type_qvh": "VILLAGE"}}, {"type": "Feature", "geometry": {"type": "Point", "coordinates": [-16.510079, 12.793979]}, "properties": {"id": "centre_sante-28", "type": "centre_sante", "type_label": "Centre de santé", "nom": "CS THIONCK ESSYL", "region": {"nom": "ZIGUINCHOR", "code": 2}, "departement": {"nom": "BIGNONA", "code": 21}, "commune": {"nom": "THIONCK ESSYL", "code": 21102}, "communaute_rurale": {"nom": "THIONCK ESSYL", "code": 2110200}, "quartier_village": "KAMANAR", "milieu": "URBAIN", "thematique": "SANTE", "type_qvh": "QUARTIER"}}, {"type": "Feature", "geometry": {"type": "Point", "coordinates": [-12.214931, 14.449633]}, "properties": {"id": "centre_sante-29", "type": "centre_sante", "type_label": "Centre de santé", "nom": "CS KIDIRA", "region": {"nom": "TAMBACOUNDA", "code": 5}, "departement": {"nom": "BAKEL", "code": 51}, "commune": {"nom": "BELE", "code": 51202}, "communaute_rurale": {"nom": "KIDIRA", "code": 5120203}, "quartier_village": "PLATEAU", "milieu": "URBAIN", "thematique": "SANTE", "type_qvh": "QUARTIER"}}, {"type": "Feature", "geometry": {"type": "Point", "coordinates": [-14.568213, 13.984762]}, "properties": {"id": "centre_sante-30", "type": "centre_sante", "type_label": "Centre de santé", "nom": "CS KOUMPENTOUM", "region": {"nom": "TAMBACOUNDA", "code": 5}, "departement": {"nom": "KOUMPENTOUM", "code": 54}, "commune": {"nom": "KOUMPENTOUM", "code": 54101}, "communaute_rurale": {"nom": "KOUMPENTOUM", "code": 5410100}, "quartier_village": "WASSADOU", "milieu": "URBAIN", "thematique": "SANTE", "type_qvh": "QUARTIER"}}, {"type": "Feature", "geometry": {"type": "Point", "coordinates": [-12.719129, 14.187141]}, "properties": {"id": "centre_sante-31", "type": "centre_sante", "type_label": "Centre de santé", "nom": "CS GOUDIRY", "region": {"nom": "TAMBACOUNDA", "code": 5}, "departement": {"nom": "GOUDIRY", "code": 53}, "commune": {"nom": "GOUDIRY", "code": 53101}, "communaute_rurale": {"nom": "GOUDIRY", "code": 5310100}, "quartier_village": "POSTE", "milieu": "URBAIN", "thematique": "SANTE", "type_qvh": "QUARTIER"}}, {"type": "Feature", "geometry": {"type": "Point", "coordinates": [-12.458403, 14.915445]}, "properties": {"id": "centre_sante-32", "type": "centre_sante", "type_label": "Centre de santé", "nom": "CS BAKEL", "region": {"nom": "TAMBACOUNDA", "code": 5}, "departement": {"nom": "BAKEL", "code": 51}, "commune": {"nom": "BAKEL", "code": 51101}, "communaute_rurale": {"nom": "BAKEL", "code": 5110100}, "quartier_village": "HLM", "milieu": "URBAIN", "thematique": "SANTE", "type_qvh": "QUARTIER"}}, {"type": "Feature", "geometry": {"type": "Point", "coordinates": [-12.662259, 13.68154]}, "properties": {"id": "centre_sante-33", "type": "centre_sante", "type_label": "Centre de santé", "nom": "CS DIANKE MAKHA", "region": {"nom": "TAMBACOUNDA", "code": 5}, "departement": {"nom": "GOUDIRY", "code": 53}, "commune": {"nom": "DIANKE MAKHA", "code": 53203}, "communaute_rurale": {"nom": "DIANKE MAKHA", "code": 5320303}, "quartier_village": "DIANKE MAKHA", "milieu": "RURAL", "thematique": "SANTE", "type_qvh": "VILLAGE"}}, {"type": "Feature", "geometry": {"type": "Point", "coordinates": [-14.284516, 13.671045]}, "properties": {"id": "centre_sante-34", "type": "centre_sante", "type_label": "Centre de santé", "nom": "CS MAKACOLIBANTANG", "region": {"nom": "TAMBACOUNDA", "code": 5}, "departement": {"nom": "TAMBACOUNDA", "code": 52}, "commune": {"nom": "MAKACOULIBANTANG", "code": 52202}, "communaute_rurale": {"nom": "MAKACOLIBANTANG", "code": 5220201}, "quartier_village": "MAKA ESCALE (MAKACOULIBANTATANG)", "milieu": "RURAL", "thematique": "SANTE", "type_qvh": "VILLAGE"}}, {"type": "Feature", "geometry": {"type": "Point", "coordinates": [-13.673693, 13.77887]}, "properties": {"id": "centre_sante-35", "type": "centre_sante", "type_label": "Centre de santé", "nom": "CS TAMBACOUNDA", "region": {"nom": "TAMBACOUNDA", "code": 5}, "departement": {"nom": "TAMBACOUNDA", "code": 52}, "commune": {"nom": "TAMBACOUNDA", "code": 52101}, "communaute_rurale": {"nom": "TAMBACOUNDA", "code": 5210100}, "quartier_village": "LIBERTE OUEST", "milieu": "URBAIN", "thematique": "SANTE", "type_qvh": "QUARTIER"}}, {"type": "Feature", "geometry": {"type": "Point", "coordinates": [-16.683617, 14.760598]}, "properties": {"id": "centre_sante-36", "type": "centre_sante", "type_label": "Centre de santé", "nom": "CS KHOMBOLE", "region": {"nom": "THIES", "code": 7}, "departement": {"nom": "THIES", "code": 72}, "commune": {"nom": "KHOMBOLE", "code": 72101}, "communaute_rurale": {"nom": "KHOMBOLE", "code": 7210100}, "quartier_village": "NGHAYE", "milieu": "URBAIN", "thematique": "SANTE", "type_qvh": "QUARTIER"}}, {"type": "Feature", "geometry": {"type": "Point", "coordinates": [-16.936364, 14.795787]}, "properties": {"id": "centre_sante-37", "type": "centre_sante", "type_label": "Centre de santé", "nom": "CS MAMADOU BATHILY (CS THIES)", "region": {"nom": "THIES", "code": 7}, "departement": {"nom": "THIES", "code": 72}, "commune": {"nom": "VILLE DE THIES", "code": 72301}, "communaute_rurale": {"nom": "THIES OUEST", "code": 7230122}, "quartier_village": "HLM DIXIEME", "milieu": "URBAIN", "thematique": "SANTE", "type_qvh": "QUARTIER"}}, {"type": "Feature", "geometry": {"type": "Point", "coordinates": [-16.948165, 14.764962]}, "properties": {"id": "centre_sante-38", "type": "centre_sante", "type_label": "Centre de santé", "nom": "CENTRE GERIATRIQUE SOULEYMANE KANTE DE THIES", "region": {"nom": "THIES", "code": 7}, "departement": {"nom": "THIES", "code": 72}, "commune": {"nom": "VILLE DE THIES", "code": 72301}, "communaute_rurale": {"nom": "THIES OUEST", "code": 7230122}, "quartier_village": "SUD STADE", "milieu": "URBAIN", "thematique": "SANTE", "type_qvh": "QUARTIER"}}, {"type": "Feature", "geometry": {"type": "Point", "coordinates": [-17.059316, 14.764294]}, "properties": {"id": "centre_sante-39", "type": "centre_sante", "type_label": "Centre de santé", "nom": "CS POUT", "region": {"nom": "THIES", "code": 7}, "departement": {"nom": "THIES", "code": 72}, "commune": {"nom": "POUT", "code": 72102}, "communaute_rurale": {"nom": "POUT", "code": 7210200}, "quartier_village": "TOUCOULEUR", "milieu": "URBAIN", "thematique": "SANTE", "type_qvh": "QUARTIER"}}, {"type": "Feature", "geometry": {"type": "Point", "coordinates": [-16.819513, 14.953576]}, "properties": {"id": "centre_sante-40", "type": "centre_sante", "type_label": "Centre de santé", "nom": "CS TIVAOUANE", "region": {"nom": "THIES", "code": 7}, "departement": {"nom": "TIVAOUANE", "code": 73}, "commune": {"nom": "TIVAOUANE", "code": 73102}, "communaute_rurale": {"nom": "TIVAOUANE", "code": 7310200}, "quartier_village": "HLM", "milieu": "URBAIN", "thematique": "SANTE", "type_qvh": "QUARTIER"}}, {"type": "Feature", "geometry": {"type": "Point", "coordinates": [-16.629672, 15.114014]}, "properties": {"id": "centre_sante-41", "type": "centre_sante", "type_label": "Centre de santé", "nom": "CS MEKHE", "region": {"nom": "THIES", "code": 7}, "departement": {"nom": "TIVAOUANE", "code": 73}, "commune": {"nom": "MEKHE", "code": 73101}, "communaute_rurale": {"nom": "MEKHE", "code": 7310100}, "quartier_village": "MBAMBARA", "milieu": "URBAIN", "thematique": "SANTE", "type_qvh": "QUARTIER"}}, {"type": "Feature", "geometry": {"type": "Point", "coordinates": [-16.698228, 14.422093]}, "properties": {"id": "centre_sante-42", "type": "centre_sante", "type_label": "Centre de santé", "nom": "CS THIADIAYE", "region": {"nom": "THIES", "code": 7}, "departement": {"nom": "MBOUR", "code": 71}, "commune": {"nom": "SESSENE", "code": 71202}, "communaute_rurale": {"nom": "THIADIAYE", "code": 7120204}, "quartier_village": "ESCALE SUD", "milieu": "URBAIN", "thematique": "SANTE", "type_qvh": "QUARTIER"}}, {"type": "Feature", "geometry": {"type": "Point", "coordinates": [-17.112699, 14.556706]}, "properties": {"id": "centre_sante-43", "type": "centre_sante", "type_label": "Centre de santé", "nom": "CS POPENGUINE", "region": {"nom": "THIES", "code": 7}, "departement": {"nom": "MBOUR", "code": 71}, "commune": {"nom": "SINDIA", "code": 71203}, "communaute_rurale": {"nom": "POPENGUINE", "code": 7120306}, "quartier_village": "TONGOR", "milieu": "URBAIN", "thematique": "SANTE", "type_qvh": "QUARTIER"}}, {"type": "Feature", "geometry": {"type": "Point", "coordinates": [-16.93762, 14.421129]}, "properties": {"id": "centre_sante-44", "type": "centre_sante", "type_label": "Centre de santé", "nom": "CS THIOCE EST ONCAD", "region": {"nom": "THIES", "code": 7}, "departement": {"nom": "MBOUR", "code": 71}, "commune": {"nom": "MBOUR", "code": 71102}, "communaute_rurale": {"nom": "MBOUR", "code": 7110200}, "quartier_village": "THIOCE EST ONCAD", "milieu": "URBAIN", "thematique": "SANTE", "type_qvh": "QUARTIER"}}, {"type": "Feature", "geometry": {"type": "Point", "coordinates": [-16.969566, 14.41006]}, "properties": {"id": "centre_sante-45", "type": "centre_sante", "type_label": "Centre de santé", "nom": "CS MBOUR", "region": {"nom": "THIES", "code": 7}, "departement": {"nom": "MBOUR", "code": 71}, "commune": {"nom": "MBOUR", "code": 71102}, "communaute_rurale": {"nom": "MBOUR", "code": 7110200}, "quartier_village": "TEFESS", "milieu": "URBAIN", "thematique": "SANTE", "type_qvh": "QUARTIER"}}, {"type": "Feature", "geometry": {"type": "Point", "coordinates": [-16.8361, 14.156295]}, "properties": {"id": "centre_sante-46", "type": "centre_sante", "type_label": "Centre de santé", "nom": "CS JOAL", "region": {"nom": "THIES", "code": 7}, "departement": {"nom": "MBOUR", "code": 71}, "commune": {"nom": "JOAL FADIOUTH", "code": 71101}, "communaute_rurale": {"nom": "JOAL FADIOUTH", "code": 7110100}, "quartier_village": "AFDAYE DIAMAGUENE", "milieu": "URBAIN", "thematique": "SANTE", "type_qvh": "QUARTIER"}}, {"type": "Feature", "geometry": {"type": "Point", "coordinates": [-16.455633, 14.700424]}, "properties": {"id": "centre_sante-47", "type": "centre_sante", "type_label": "Centre de santé", "nom": "CS BAMBEY", "region": {"nom": "DIOURBEL", "code": 3}, "departement": {"nom": "BAMBEY", "code": 31}, "commune": {"nom": "BAMBEY", "code": 31101}, "communaute_rurale": {"nom": "BAMBEY", "code": 3110100}, "quartier_village": "WAKHALDIAM SUD", "milieu": "URBAIN", "thematique": "SANTE", "type_qvh": "QUARTIER"}}, {"type": "Feature", "geometry": {"type": "Point", "coordinates": [-16.236416, 14.65428]}, "properties": {"id": "centre_sante-48", "type": "centre_sante", "type_label": "Centre de santé", "nom": "CS SIDY GUISSE (CS DIOURBEL)", "region": {"nom": "DIOURBEL", "code": 3}, "departement": {"nom": "DIOURBEL", "code": 32}, "commune": {"nom": "DIOURBEL", "code": 32101}, "communaute_rurale": {"nom": "DIOURBEL", "code": 3210100}, "quartier_village": "THIERNO KANDJI", "milieu": "URBAIN", "thematique": "SANTE", "type_qvh": "QUARTIER"}}, {"type": "Feature", "geometry": {"type": "Point", "coordinates": [-15.909929, 14.798971]}, "properties": {"id": "centre_sante-49", "type": "centre_sante", "type_label": "Centre de santé", "nom": "CS MBACKE", "region": {"nom": "DIOURBEL", "code": 3}, "departement": {"nom": "MBACKE", "code": 33}, "commune": {"nom": "MBACKE", "code": 33101}, "communaute_rurale": {"nom": "MBACKE", "code": 3310100}, "quartier_village": "MBACKE KHEWAR", "milieu": "URBAIN", "thematique": "SANTE", "type_qvh": "QUARTIER"}}, {"type": "Feature", "geometry": {"type": "Point", "coordinates": [-15.893445, 14.887209]}, "properties": {"id": "centre_sante-50", "type": "centre_sante", "type_label": "Centre de santé", "nom": "CS SERIGNE MBACKE MEDINA (CS TOUBA)", "region": {"nom": "DIOURBEL", "code": 3}, "departement": {"nom": "MBACKE", "code": 33}, "commune": {"nom": "NDAME", "code": 33202}, "communaute_rurale": {"nom": "TOUBA MOSQUEE", "code": 3320205}, "quartier_village": "DAROU KHOUDOSS", "milieu": "RURAL", "thematique": "SANTE", "type_qvh": "VILLAGE"}}, {"type": "Feature", "geometry": {"type": "Point", "coordinates": [-15.908225, 14.859596]}, "properties": {"id": "centre_sante-51", "type": "centre_sante", "type_label": "Centre de santé", "nom": "CENTRE HEMODIALYSE TOUBA", "region": {"nom": "DIOURBEL", "code": 3}, "departement": {"nom": "MBACKE", "code": 33}, "commune": {"nom": "NDAME", "code": 33202}, "communaute_rurale": {"nom": "TOUBA MOSQUEE", "code": 3320205}, "quartier_village": "DIANATOUL MAHWA", "milieu": "RURAL", "thematique": "SANTE", "type_qvh": "VILLAGE"}}, {"type": "Feature", "geometry": {"type": "Point", "coordinates": [-16.058361, 13.844768]}, "properties": {"id": "centre_sante-52", "type": "centre_sante", "type_label": "Centre de santé", "nom": "CS IBRAHIMA DIATTA", "region": {"nom": "KAOLACK", "code": 6}, "departement": {"nom": "NIORO", "code": 62}, "commune": {"nom": "WACK NGOUNA", "code": 62203}, "communaute_rurale": {"nom": "KEUR MADIABEL", "code": 6220305}, "quartier_village": "SAM", "milieu": "URBAIN", "thematique": "SANTE", "type_qvh": "QUARTIER"}}, {"type": "Feature", "geometry": {"type": "Point", "coordinates": [-15.926245, 13.915619]}, "properties": {"id": "centre_sante-53", "type": "centre_sante", "type_label": "Centre de santé", "nom": "CS NDOFFANE", "region": {"nom": "KAOLACK", "code": 6}, "departement": {"nom": "KAOLACK", "code": 61}, "commune": {"nom": "KOUMBAL", "code": 61202}, "communaute_rurale": {"nom": "NDOFFANE", "code": 6120204}, "quartier_village": "DAROU SALAM SUD", "milieu": "URBAIN", "thematique": "SANTE", "type_qvh": "QUARTIER"}}, {"type": "Feature", "geometry": {"type": "Point", "coordinates": [-15.780117, 13.742367]}, "properties": {"id": "centre_sante-54", "type": "centre_sante", "type_label": "Centre de santé", "nom": "CS NIORO", "region": {"nom": "KAOLACK", "code": 6}, "departement": {"nom": "NIORO", "code": 62}, "commune": {"nom": "NIORO", "code": 62101}, "communaute_rurale": {"nom": "NIORO", "code": 6210100}, "quartier_village": "MEDINA", "milieu": "URBAIN", "thematique": "SANTE", "type_qvh": "QUARTIER"}}, {"type": "Feature", "geometry": {"type": "Point", "coordinates": [-16.0825, 14.147629]}, "properties": {"id": "centre_sante-55", "type": "centre_sante", "type_label": "Centre de santé", "nom": "CS DE KASNACK KAOLACK", "region": {"nom": "KAOLACK", "code": 6}, "departement": {"nom": "KAOLACK", "code": 61}, "commune": {"nom": "KAOLACK", "code": 61101}, "communaute_rurale": {"nom": "KAOLACK", "code": 6110100}, "quartier_village": "KASNACK", "milieu": "URBAIN", "thematique": "SANTE", "type_qvh": "QUARTIER"}}, {"type": "Feature", "geometry": {"type": "Point", "coordinates": [-15.954778, 14.27406]}, "properties": {"id": "centre_sante-56", "type": "centre_sante", "type_label": "Centre de santé", "nom": "CS GUINGUINEO", "region": {"nom": "KAOLACK", "code": 6}, "departement": {"nom": "GUINGUINEO", "code": 63}, "commune": {"nom": "GUINGUINEO", "code": 63101}, "communaute_rurale": {"nom": "GUINGUINEO", "code": 6310100}, "quartier_village": "PALENE", "milieu": "URBAIN", "thematique": "SANTE", "type_qvh": "QUARTIER"}}, {"type": "Feature", "geometry": {"type": "Point", "coordinates": [-17.352686, 14.749957]}, "properties": {"id": "centre_sante-57", "type": "centre_sante", "type_label": "Centre de santé", "nom": "CS KHADIMOUL RASSOUL (CS MBAO)", "region": {"nom": "DAKAR", "code": 1}, "departement": {"nom": "PIKINE", "code": 12}, "commune": {"nom": "VILLE DE PIKINE", "code": 12301}, "communaute_rurale": {"nom": "DIAMAGUENE SICAP MBAO", "code": 1230133}, "quartier_village": "SICAP MBAO (CITE OUVRIERE)", "milieu": "URBAIN", "thematique": "SANTE", "type_qvh": "QUARTIER"}}, {"type": "Feature", "geometry": {"type": "Point", "coordinates": [-17.458158, 14.681963]}, "properties": {"id": "centre_sante-58", "type": "centre_sante", "type_label": "Centre de santé", "nom": "CS ELISABETH DIOUF", "region": {"nom": "DAKAR", "code": 1}, "departement": {"nom": "DAKAR", "code": 11}, "commune": {"nom": "VILLE DE DAKAR", "code": 11301}, "communaute_rurale": {"nom": "GUEULE TAPEE FASS COLOBANE", "code": 1130114}, "quartier_village": "HLM GUEULE TAPEE (GUEULE TAPEE IV)", "milieu": "URBAIN", "thematique": "SANTE", "type_qvh": "QUARTIER"}}, {"type": "Feature", "geometry": {"type": "Point", "coordinates": [-17.445529, 14.696181]}, "properties": {"id": "centre_sante-59", "type": "centre_sante", "type_label": "Centre de santé", "nom": "CS COLOBANE", "region": {"nom": "DAKAR", "code": 1}, "departement": {"nom": "DAKAR", "code": 11}, "commune": {"nom": "VILLE DE DAKAR", "code": 11301}, "communaute_rurale": {"nom": "GUEULE TAPEE FASS COLOBANE", "code": 1130114}, "quartier_village": "COLOBANE HOCK", "milieu": "URBAIN", "thematique": "SANTE", "type_qvh": "QUARTIER"}}, {"type": "Feature", "geometry": {"type": "Point", "coordinates": [-17.455919, 14.684915]}, "properties": {"id": "centre_sante-60", "type": "centre_sante", "type_label": "Centre de santé", "nom": "CENTRE ANTI-DIABETE MARC SANKALE", "region": {"nom": "DAKAR", "code": 1}, "departement": {"nom": "DAKAR", "code": 11}, "commune": {"nom": "VILLE DE DAKAR", "code": 11301}, "communaute_rurale": {"nom": "GUEULE TAPEE FASS COLOBANE", "code": 1130114}, "quartier_village": "GUEULE TAPEE III (NDOYENE)", "milieu": "URBAIN", "thematique": "SANTE", "type_qvh": "QUARTIER"}}, {"type": "Feature", "geometry": {"type": "Point", "coordinates": [-17.442306, 14.708699]}, "properties": {"id": "centre_sante-61", "type": "centre_sante", "type_label": "Centre de santé", "nom": "CS HLM 5", "region": {"nom": "DAKAR", "code": 1}, "departement": {"nom": "DAKAR", "code": 11}, "commune": {"nom": "VILLE DE DAKAR", "code": 11301}, "communaute_rurale": {"nom": "HLM", "code": 1130123}, "quartier_village": "HLM V B", "milieu": "URBAIN", "thematique": "SANTE", "type_qvh": "QUARTIER"}}, {"type": "Feature", "geometry": {"type": "Point", "coordinates": [-17.450379, 14.682069]}, "properties": {"id": "centre_sante-62", "type": "centre_sante", "type_label": "Centre de santé", "nom": "CS PMI MEDINA", "region": {"nom": "DAKAR", "code": 1}, "departement": {"nom": "DAKAR", "code": 11}, "commune": {"nom": "VILLE DE DAKAR", "code": 11301}, "communaute_rurale": {"nom": "MEDINA", "code": 1130113}, "quartier_village": "TILENE", "milieu": "URBAIN", "thematique": "SANTE", "type_qvh": "QUARTIER"}}, {"type": "Feature", "geometry": {"type": "Point", "coordinates": [-17.513353, 14.746217]}, "properties": {"id": "centre_sante-63", "type": "centre_sante", "type_label": "Centre de santé", "nom": "CS DIOGALI MOUSSE SAMB (CS NGOR)", "region": {"nom": "DAKAR", "code": 1}, "departement": {"nom": "DAKAR", "code": 11}, "commune": {"nom": "VILLE DE DAKAR", "code": 11301}, "communaute_rurale": {"nom": "NGOR", "code": 1130132}, "quartier_village": "ZONE EXTENSION OUEST", "milieu": "URBAIN", "thematique": "SANTE", "type_qvh": "QUARTIER"}}, {"type": "Feature", "geometry": {"type": "Point", "coordinates": [-17.494777, 14.715702]}, "properties": {"id": "centre_sante-64", "type": "centre_sante", "type_label": "Centre de santé", "nom": "CENTRE INTERNATIONAL DE CANCEROLOGIE", "region": {"nom": "DAKAR", "code": 1}, "departement": {"nom": "DAKAR", "code": 11}, "commune": {"nom": "VILLE DE DAKAR", "code": 11301}, "communaute_rurale": {"nom": "OUAKAM", "code": 1130131}, "quartier_village": "MAMELLES AVIATION", "milieu": "URBAIN", "thematique": "SANTE", "type_qvh": "QUARTIER"}}, {"type": "Feature", "geometry": {"type": "Point", "coordinates": [-17.491779, 14.72094]}, "properties": {"id": "centre_sante-65", "type": "centre_sante", "type_label": "Centre de santé", "nom": "CENTRE DE GERIATRIE ET DE GERONTOLOGIE", "region": {"nom": "DAKAR", "code": 1}, "departement": {"nom": "DAKAR", "code": 11}, "commune": {"nom": "VILLE DE DAKAR", "code": 11301}, "communaute_rurale": {"nom": "OUAKAM", "code": 1130131}, "quartier_village": "SINTHIA", "milieu": "URBAIN", "thematique": "SANTE", "type_qvh": "QUARTIER"}}, {"type": "Feature", "geometry": {"type": "Point", "coordinates": [-17.49161, 14.720696]}, "properties": {"id": "centre_sante-66", "type": "centre_sante", "type_label": "Centre de santé", "nom": "CS OUAKAM", "region": {"nom": "DAKAR", "code": 1}, "departement": {"nom": "DAKAR", "code": 11}, "commune": {"nom": "VILLE DE DAKAR", "code": 11301}, "communaute_rurale": {"nom": "OUAKAM", "code": 1130131}, "quartier_village": "SINTHIA", "milieu": "URBAIN", "thematique": "SANTE", "type_qvh": "QUARTIER"}}, {"type": "Feature", "geometry": {"type": "Point", "coordinates": [-17.438517, 14.757437]}, "properties": {"id": "centre_sante-67", "type": "centre_sante", "type_label": "Centre de santé", "nom": "CS ABDOU AZIZ SY DABAKH", "region": {"nom": "DAKAR", "code": 1}, "departement": {"nom": "DAKAR", "code": 11}, "commune": {"nom": "VILLE DE DAKAR", "code": 11301}, "communaute_rurale": {"nom": "PARCELLES ASSAINIES", "code": 1130143}, "quartier_village": "UNITE XVII", "milieu": "URBAIN", "thematique": "SANTE", "type_qvh": "QUARTIER"}}, {"type": "Feature", "geometry": {"type": "Point", "coordinates": [-17.470841, 14.730031]}, "properties": {"id": "centre_sante-68", "type": "centre_sante", "type_label": "Centre de santé", "nom": "CS MAMADOU DIOP (CS LIBERTE 6)", "region": {"nom": "DAKAR", "code": 1}, "departement": {"nom": "DAKAR", "code": 11}, "commune": {"nom": "VILLE DE DAKAR", "code": 11301}, "communaute_rurale": {"nom": "SICAP LIBERTE", "code": 1130125}, "quartier_village": "LIBERTE VI EXTENSION", "milieu": "URBAIN", "thematique": "SANTE", "type_qvh": "QUARTIER"}}, {"type": "Feature", "geometry": {"type": "Point", "coordinates": [-17.474136, 14.756175]}, "properties": {"id": "centre_sante-69", "type": "centre_sante", "type_label": "Centre de santé", "nom": "CS PHILIPPE MAGUELINE SENGHOR", "region": {"nom": "DAKAR", "code": 1}, "departement": {"nom": "DAKAR", "code": 11}, "commune": {"nom": "VILLE DE DAKAR", "code": 11301}, "communaute_rurale": {"nom": "YOFF", "code": 1130133}, "quartier_village": "YOFF MBENGUENE", "milieu": "URBAIN", "thematique": "SANTE", "type_qvh": "QUARTIER"}}, {"type": "Feature", "geometry": {"type": "Point", "coordinates": [-17.429079, 14.765438]}, "properties": {"id": "centre_sante-70", "type": "centre_sante", "type_label": "Centre de santé", "nom": "CS SEYDINA ISSA ROHOU LAHI (CS CAMBERENE)", "region": {"nom": "DAKAR", "code": 1}, "departement": {"nom": "DAKAR", "code": 11}, "commune": {"nom": "VILLE DE DAKAR", "code": 11301}, "communaute_rurale": {"nom": "CAMBERENE", "code": 1130144}, "quartier_village": "KAWSARA", "milieu": "URBAIN", "thematique": "SANTE", "type_qvh": "QUARTIER"}}, {"type": "Feature", "geometry": {"type": "Point", "coordinates": [-17.437126, 14.663142]}, "properties": {"id": "centre_sante-71", "type": "centre_sante", "type_label": "Centre de santé", "nom": "CENTRE HEMODIALYSE DE DAKAR", "region": {"nom": "DAKAR", "code": 1}, "departement": {"nom": "DAKAR", "code": 11}, "commune": {"nom": "VILLE DE DAKAR", "code": 11301}, "communaute_rurale": {"nom": "DAKAR PLATEAU", "code": 1130112}, "quartier_village": "LAMBINASSE", "milieu": "URBAIN", "thematique": "SANTE", "type_qvh": "QUARTIER"}}, {"type": "Feature", "geometry": {"type": "Point", "coordinates": [-17.441724, 14.678532]}, "properties": {"id": "centre_sante-72", "type": "centre_sante", "type_label": "Centre de santé", "nom": "CS PLATEAU", "region": {"nom": "DAKAR", "code": 1}, "departement": {"nom": "DAKAR", "code": 11}, "commune": {"nom": "VILLE DE DAKAR", "code": 11301}, "communaute_rurale": {"nom": "DAKAR PLATEAU", "code": 1130112}, "quartier_village": "CITE CAP VERDIENNE", "milieu": "URBAIN", "thematique": "SANTE", "type_qvh": "QUARTIER"}}, {"type": "Feature", "geometry": {"type": "Point", "coordinates": [-17.465562, 14.738588]}, "properties": {"id": "centre_sante-73", "type": "centre_sante", "type_label": "Centre de santé", "nom": "CS SAMU MUNICIPAL", "region": {"nom": "DAKAR", "code": 1}, "departement": {"nom": "DAKAR", "code": 11}, "commune": {"nom": "VILLE DE DAKAR", "code": 11301}, "communaute_rurale": {"nom": "GRAND YOFF", "code": 1130141}, "quartier_village": "SUD FOIRE (CITE SONATEL I)", "milieu": "URBAIN", "thematique": "SANTE", "type_qvh": "QUARTIER"}}, {"type": "Feature", "geometry": {"type": "Point", "coordinates": [-17.45821, 14.701305]}, "properties": {"id": "centre_sante-74", "type": "centre_sante", "type_label": "Centre de santé", "nom": "CS GASPARD CAMARA", "region": {"nom": "DAKAR", "code": 1}, "departement": {"nom": "DAKAR", "code": 11}, "commune": {"nom": "VILLE DE DAKAR", "code": 11301}, "communaute_rurale": {"nom": "FANN POINT E AMITIE", "code": 1130115}, "quartier_village": "AMITIE II", "milieu": "URBAIN", "thematique": "SANTE", "type_qvh": "QUARTIER"}}, {"type": "Feature", "geometry": {"type": "Point", "coordinates": [-17.45399, 14.706033]}, "properties": {"id": "centre_sante-75", "type": "centre_sante", "type_label": "Centre de santé", "nom": "CS GRAND DAKAR", "region": {"nom": "DAKAR", "code": 1}, "departement": {"nom": "DAKAR", "code": 11}, "commune": {"nom": "VILLE DE DAKAR", "code": 11301}, "communaute_rurale": {"nom": "GRAND DAKAR", "code": 1130121}, "quartier_village": "GRAND DAKAR IV A", "milieu": "URBAIN", "thematique": "SANTE", "type_qvh": "QUARTIER"}}, {"type": "Feature", "geometry": {"type": "Point", "coordinates": [-17.426391, 14.734642]}, "properties": {"id": "centre_sante-76", "type": "centre_sante", "type_label": "Centre de santé", "nom": "CS HANN MARISTE", "region": {"nom": "DAKAR", "code": 1}, "departement": {"nom": "DAKAR", "code": 11}, "commune": {"nom": "VILLE DE DAKAR", "code": 11301}, "communaute_rurale": {"nom": "HANN BEL AIR", "code": 1130124}, "quartier_village": "CITE SCAT URBAM MARISTE I", "milieu": "URBAIN", "thematique": "SANTE", "type_qvh": "QUARTIER"}}, {"type": "Feature", "geometry": {"type": "Point", "coordinates": [-17.429381, 14.724986]}, "properties": {"id": "centre_sante-77", "type": "centre_sante", "type_label": "Centre de santé", "nom": "CS HANN SUR MER", "region": {"nom": "DAKAR", "code": 1}, "departement": {"nom": "DAKAR", "code": 11}, "commune": {"nom": "VILLE DE DAKAR", "code": 11301}, "communaute_rurale": {"nom": "HANN BEL AIR", "code": 1130124}, "quartier_village": "WALOGUI (HANN PLAGE)", "milieu": "URBAIN", "thematique": "SANTE", "type_qvh": "QUARTIER"}}, {"type": "Feature", "geometry": {"type": "Point", "coordinates": [-17.424623, 14.757979]}, "properties": {"id": "centre_sante-78", "type": "centre_sante", "type_label": "Centre de santé", "nom": "CS COMMUNAUTAIRE DE GUENTABA", "region": {"nom": "DAKAR", "code": 1}, "departement": {"nom": "GUEDIAWAYE", "code": 14}, "commune": {"nom": "VILLE DE GUEDIAWAYE", "code": 14301}, "communaute_rurale": {"nom": "GOLF SUD", "code": 1430111}, "quartier_village": "GUENTABA I", "milieu": "URBAIN", "thematique": "SANTE", "type_qvh": "QUARTIER"}}, {"type": "Feature", "geometry": {"type": "Point", "coordinates": [-17.407344, 14.771795]}, "properties": {"id": "centre_sante-79", "type": "centre_sante", "type_label": "Centre de santé", "nom": "CS FITH MITH", "region": {"nom": "DAKAR", "code": 1}, "departement": {"nom": "GUEDIAWAYE", "code": 14}, "commune": {"nom": "VILLE DE GUEDIAWAYE", "code": 14301}, "communaute_rurale": {"nom": "GOLF SUD", "code": 1430111}, "quartier_village": "FITH MITH", "milieu": "URBAIN", "thematique": "SANTE", "type_qvh": "QUARTIER"}}, {"type": "Feature", "geometry": {"type": "Point", "coordinates": [-17.409319, 14.776368]}, "properties": {"id": "centre_sante-80", "type": "centre_sante", "type_label": "Centre de santé", "nom": "CS GOLF SUD", "region": {"nom": "DAKAR", "code": 1}, "departement": {"nom": "GUEDIAWAYE", "code": 14}, "commune": {"nom": "VILLE DE GUEDIAWAYE", "code": 14301}, "communaute_rurale": {"nom": "GOLF SUD", "code": 1430111}, "quartier_village": "HAMO III", "milieu": "URBAIN", "thematique": "SANTE", "type_qvh": "QUARTIER"}}, {"type": "Feature", "geometry": {"type": "Point", "coordinates": [-17.386829, 14.782195]}, "properties": {"id": "centre_sante-81", "type": "centre_sante", "type_label": "Centre de santé", "nom": "CS DISTRICT SANITAIRE DE GUEDIAWAYE", "region": {"nom": "DAKAR", "code": 1}, "departement": {"nom": "GUEDIAWAYE", "code": 14}, "commune": {"nom": "VILLE DE GUEDIAWAYE", "code": 14301}, "communaute_rurale": {"nom": "NDIAREME LIMAMOULAYE", "code": 1430122}, "quartier_village": "HAMO IV", "milieu": "URBAIN", "thematique": "SANTE", "type_qvh": "QUARTIER"}}, {"type": "Feature", "geometry": {"type": "Point", "coordinates": [-17.376806, 14.780687]}, "properties": {"id": "centre_sante-82", "type": "centre_sante", "type_label": "Centre de santé", "nom": "CS WAHINANE GUEDIAWAYE", "region": {"nom": "DAKAR", "code": 1}, "departement": {"nom": "GUEDIAWAYE", "code": 14}, "commune": {"nom": "VILLE DE GUEDIAWAYE", "code": 14301}, "communaute_rurale": {"nom": "WAKHINANE NIMZATT", "code": 1430123}, "quartier_village": "WAKHINANE II", "milieu": "URBAIN", "thematique": "SANTE", "type_qvh": "QUARTIER"}}, {"type": "Feature", "geometry": {"type": "Point", "coordinates": [-17.342228, 14.766369]}, "properties": {"id": "centre_sante-83", "type": "centre_sante", "type_label": "Centre de santé", "nom": "CS DISTRICT SANITAIRE YEUMBEUL", "region": {"nom": "DAKAR", "code": 1}, "departement": {"nom": "KEUR MASSAR", "code": 15}, "commune": {"nom": "MALIKA", "code": 15202}, "communaute_rurale": {"nom": "KEUR MASSAR NORD", "code": 1520201}, "quartier_village": "BOUNE I", "milieu": "URBAIN", "thematique": "SANTE", "type_qvh": "QUARTIER"}}, {"type": "Feature", "geometry": {"type": "Point", "coordinates": [-17.321954, 14.778016]}, "properties": {"id": "centre_sante-84", "type": "centre_sante", "type_label": "Centre de santé", "nom": "CS KEUR MASSAR", "region": {"nom": "DAKAR", "code": 1}, "departement": {"nom": "KEUR MASSAR", "code": 15}, "commune": {"nom": "MALIKA", "code": 15202}, "communaute_rurale": {"nom": "KEUR MASSAR NORD", "code": 1520201}, "quartier_village": "PARCELLES ASSAINIES UNITE IX", "milieu": "URBAIN", "thematique": "SANTE", "type_qvh": "QUARTIER"}}, {"type": "Feature", "geometry": {"type": "Point", "coordinates": [-17.340805, 14.782139]}, "properties": {"id": "centre_sante-85", "type": "centre_sante", "type_label": "Centre de santé", "nom": "CS COMMUNAUTAIRE AWA MARIE COLL SECK", "region": {"nom": "DAKAR", "code": 1}, "departement": {"nom": "KEUR MASSAR", "code": 15}, "commune": {"nom": "YEUMBEUL NORD", "code": 15201}, "communaute_rurale": {"nom": "YEUMBEUL NORD", "code": 1520101}, "quartier_village": "DAROU SALAM VI E", "milieu": "URBAIN", "thematique": "SANTE", "type_qvh": "QUARTIER"}}, {"type": "Feature", "geometry": {"type": "Point", "coordinates": [-17.342007, 14.7702]}, "properties": {"id": "centre_sante-86", "type": "centre_sante", "type_label": "Centre de santé", "nom": "CS ARISTIDE MENSAH", "region": {"nom": "DAKAR", "code": 1}, "departement": {"nom": "KEUR MASSAR", "code": 15}, "commune": {"nom": "YEUMBEUL NORD", "code": 15201}, "communaute_rurale": {"nom": "YEUMBEUL NORD", "code": 1520101}, "quartier_village": "COMICO II", "milieu": "URBAIN", "thematique": "SANTE", "type_qvh": "QUARTIER"}}, {"type": "Feature", "geometry": {"type": "Point", "coordinates": [-17.228731, 14.693762]}, "properties": {"id": "centre_sante-87", "type": "centre_sante", "type_label": "Centre de santé", "nom": "CS BARGNY", "region": {"nom": "DAKAR", "code": 1}, "departement": {"nom": "RUFISQUE", "code": 13}, "commune": {"nom": "BARGNY", "code": 13101}, "communaute_rurale": {"nom": "BARGNY", "code": 1310100}, "quartier_village": "CITE II", "milieu": "URBAIN", "thematique": "SANTE", "type_qvh": "QUARTIER"}}, {"type": "Feature", "geometry": {"type": "Point", "coordinates": [-17.183583, 14.719045]}, "properties": {"id": "centre_sante-88", "type": "centre_sante", "type_label": "Centre de santé", "nom": "CS DIAMNIADIO", "region": {"nom": "DAKAR", "code": 1}, "departement": {"nom": "RUFISQUE", "code": 13}, "commune": {"nom": "DIAMNIADIO", "code": 13201}, "communaute_rurale": {"nom": "DIAMNIADIO", "code": 1320101}, "quartier_village": "DIAMNIADIO SUD I", "milieu": "URBAIN", "thematique": "SANTE", "type_qvh": "QUARTIER"}}, {"type": "Feature", "geometry": {"type": "Point", "coordinates": [-17.29312, 14.730074]}, "properties": {"id": "centre_sante-89", "type": "centre_sante", "type_label": "Centre de santé", "nom": "CS DISTRICT SANITAIRE", "region": {"nom": "DAKAR", "code": 1}, "departement": {"nom": "RUFISQUE", "code": 13}, "commune": {"nom": "VILLE DE RUFISQUE", "code": 13301}, "communaute_rurale": {"nom": "RUFISQUE OUEST", "code": 1330113}, "quartier_village": "CITE SENELEC", "milieu": "URBAIN", "thematique": "SANTE", "type_qvh": "QUARTIER"}}, {"type": "Feature", "geometry": {"type": "Point", "coordinates": [-17.267972, 14.712984]}, "properties": {"id": "centre_sante-90", "type": "centre_sante", "type_label": "Centre de santé", "nom": "CS MUTUELLE DE RUFISQUE", "region": {"nom": "DAKAR", "code": 1}, "departement": {"nom": "RUFISQUE", "code": 13}, "commune": {"nom": "VILLE DE RUFISQUE", "code": 13301}, "communaute_rurale": {"nom": "RUFISQUE EST", "code": 1330112}, "quartier_village": "KEURY KAW GARE", "milieu": "URBAIN", "thematique": "SANTE", "type_qvh": "QUARTIER"}}, {"type": "Feature", "geometry": {"type": "Point", "coordinates": [-17.271758, 14.711858]}, "properties": {"id": "centre_sante-91", "type": "centre_sante", "type_label": "Centre de santé", "nom": "CS RUFISQUE POLYCLINIQUE", "region": {"nom": "DAKAR", "code": 1}, "departement": {"nom": "RUFISQUE", "code": 13}, "commune": {"nom": "VILLE DE RUFISQUE", "code": 13301}, "communaute_rurale": {"nom": "RUFISQUE EST", "code": 1330112}, "quartier_village": "KEURY KAW", "milieu": "URBAIN", "thematique": "SANTE", "type_qvh": "QUARTIER"}}, {"type": "Feature", "geometry": {"type": "Point", "coordinates": [-17.39598, 14.755774]}, "properties": {"id": "centre_sante-92", "type": "centre_sante", "type_label": "Centre de santé", "nom": "CS BAYE TALLA DIOP EX DOMINIQUE", "region": {"nom": "DAKAR", "code": 1}, "departement": {"nom": "PIKINE", "code": 12}, "commune": {"nom": "VILLE DE PIKINE", "code": 12301}, "communaute_rurale": {"nom": "PIKINE OUEST", "code": 1230121}, "quartier_village": "GAZELLE EST", "milieu": "URBAIN", "thematique": "SANTE", "type_qvh": "QUARTIER"}}, {"type": "Feature", "geometry": {"type": "Point", "coordinates": [-17.404741, 14.75262]}, "properties": {"id": "centre_sante-93", "type": "centre_sante", "type_label": "Centre de santé", "nom": "CS LE TECHNOPOLE", "region": {"nom": "DAKAR", "code": 1}, "departement": {"nom": "PIKINE", "code": 12}, "commune": {"nom": "VILLE DE PIKINE", "code": 12301}, "communaute_rurale": {"nom": "PIKINE OUEST", "code": 1230121}, "quartier_village": "CITE TECHNOPELE", "milieu": "URBAIN", "thematique": "SANTE", "type_qvh": "QUARTIER"}}, {"type": "Feature", "geometry": {"type": "Point", "coordinates": [-17.388289, 14.754006]}, "properties": {"id": "centre_sante-94", "type": "centre_sante", "type_label": "Centre de santé", "nom": "CS DISTRICT SANITAIRE", "region": {"nom": "DAKAR", "code": 1}, "departement": {"nom": "PIKINE", "code": 12}, "commune": {"nom": "VILLE DE PIKINE", "code": 12301}, "communaute_rurale": {"nom": "PIKINE EST", "code": 1230122}, "quartier_village": "NIMZATT II", "milieu": "URBAIN", "thematique": "SANTE", "type_qvh": "QUARTIER"}}, {"type": "Feature", "geometry": {"type": "Point", "coordinates": [-17.286283, 14.787808]}, "properties": {"id": "centre_sante-95", "type": "centre_sante", "type_label": "Centre de santé", "nom": "CS TIVAOUANE PEULH", "region": {"nom": "DAKAR", "code": 1}, "departement": {"nom": "RUFISQUE", "code": 13}, "commune": {"nom": "SANGALKAM", "code": 13202}, "communaute_rurale": {"nom": "TIVAOUANE PEULH NIAGHA", "code": 1320203}, "quartier_village": "CITE UCAD 3", "milieu": "RURAL", "thematique": "SANTE", "type_qvh": "VILLAGE"}}, {"type": "Feature", "geometry": {"type": "Point", "coordinates": [-16.341415, 15.481358]}, "properties": {"id": "centre_sante-96", "type": "centre_sante", "type_label": "Centre de santé", "nom": "CS GUEOUL", "region": {"nom": "LOUGA", "code": 8}, "departement": {"nom": "KEBEMER", "code": 81}, "commune": {"nom": "NDANDE", "code": 81202}, "communaute_rurale": {"nom": "GUEOUL", "code": 8120206}, "quartier_village": "GOUYE GAL", "milieu": "URBAIN", "thematique": "SANTE", "type_qvh": "QUARTIER"}}, {"type": "Feature", "geometry": {"type": "Point", "coordinates": [-16.442504, 15.371651]}, "properties": {"id": "centre_sante-97", "type": "centre_sante", "type_label": "Centre de santé", "nom": "CS KEBEMER", "region": {"nom": "LOUGA", "code": 8}, "departement": {"nom": "KEBEMER", "code": 81}, "commune": {"nom": "KEBEMER", "code": 81101}, "communaute_rurale": {"nom": "KEBEMER", "code": 8110100}, "quartier_village": "ESCALE", "milieu": "URBAIN", "thematique": "SANTE", "type_qvh": "QUARTIER"}}, {"type": "Feature", "geometry": {"type": "Point", "coordinates": [-15.114667, 15.39571]}, "properties": {"id": "centre_sante-98", "type": "centre_sante", "type_label": "Centre de santé", "nom": "CS LINGUERE", "region": {"nom": "LOUGA", "code": 8}, "departement": {"nom": "LINGUERE", "code": 82}, "commune": {"nom": "LINGUERE", "code": 82101}, "communaute_rurale": {"nom": "LINGUERE", "code": 8210100}, "quartier_village": "LINGUERE COUMBA 1", "milieu": "URBAIN", "thematique": "SANTE", "type_qvh": "QUARTIER"}}, {"type": "Feature", "geometry": {"type": "Point", "coordinates": [-16.239846, 15.629771]}, "properties": {"id": "centre_sante-99", "type": "centre_sante", "type_label": "Centre de santé", "nom": "CS LOUGA", "region": {"nom": "LOUGA", "code": 8}, "departement": {"nom": "LOUGA", "code": 83}, "commune": {"nom": "LOUGA", "code": 83101}, "communaute_rurale": {"nom": "LOUGA", "code": 8310100}, "quartier_village": "SANTHIABA CENTRE", "milieu": "URBAIN", "thematique": "SANTE", "type_qvh": "QUARTIER"}}, {"type": "Feature", "geometry": {"type": "Point", "coordinates": [-15.991676, 15.509043]}, "properties": {"id": "centre_sante-100", "type": "centre_sante", "type_label": "Centre de santé", "nom": "CS COKI", "region": {"nom": "LOUGA", "code": 8}, "departement": {"nom": "LOUGA", "code": 83}, "commune": {"nom": "COKI", "code": 83201}, "communaute_rurale": {"nom": "COKI", "code": 8320101}, "quartier_village": "COKI", "milieu": "RURAL", "thematique": "SANTE", "type_qvh": "VILLAGE"}}, {"type": "Feature", "geometry": {"type": "Point", "coordinates": [-15.964923, 15.924662]}, "properties": {"id": "centre_sante-101", "type": "centre_sante", "type_label": "Centre de santé", "nom": "CS KEUR MOMAR SARR", "region": {"nom": "LOUGA", "code": 8}, "departement": {"nom": "LOUGA", "code": 83}, "commune": {"nom": "KEUR MOMAR SARR", "code": 83202}, "communaute_rurale": {"nom": "KEUR MOMAR SARR", "code": 8320202}, "quartier_village": "NDIOBENE KEUR AYA", "milieu": "RURAL", "thematique": "SANTE", "type_qvh": "VILLAGE"}}, {"type": "Feature", "geometry": {"type": "Point", "coordinates": [-16.223825, 15.834066]}, "properties": {"id": "centre_sante-102", "type": "centre_sante", "type_label": "Centre de santé", "nom": "CS SAKAL", "region": {"nom": "LOUGA", "code": 8}, "departement": {"nom": "LOUGA", "code": 83}, "commune": {"nom": "SAKAL", "code": 83204}, "communaute_rurale": {"nom": "SAKAL", "code": 8320403}, "quartier_village": "SAKAL", "milieu": "RURAL", "thematique": "SANTE", "type_qvh": "VILLAGE"}}, {"type": "Feature", "geometry": {"type": "Point", "coordinates": [-15.782407, 15.439612]}, "properties": {"id": "centre_sante-103", "type": "centre_sante", "type_label": "Centre de santé", "nom": "CS MOUKH MOUKH", "region": {"nom": "LOUGA", "code": 8}, "departement": {"nom": "LOUGA", "code": 83}, "commune": {"nom": "COKI", "code": 83201}, "communaute_rurale": {"nom": "THIAMENE", "code": 8320103}, "quartier_village": "MOUKH MOUKH", "milieu": "RURAL", "thematique": "SANTE", "type_qvh": "VILLAGE"}}, {"type": "Feature", "geometry": {"type": "Point", "coordinates": [-15.480357, 15.359536]}, "properties": {"id": "centre_sante-104", "type": "centre_sante", "type_label": "Centre de santé", "nom": "CS DAHRA", "region": {"nom": "LOUGA", "code": 8}, "departement": {"nom": "LINGUERE", "code": 82}, "commune": {"nom": "DAHRA", "code": 82102}, "communaute_rurale": {"nom": "DAHRA", "code": 8210200}, "quartier_village": "NGUEUNEUNENE", "milieu": "URBAIN", "thematique": "SANTE", "type_qvh": "QUARTIER"}}, {"type": "Feature", "geometry": {"type": "Point", "coordinates": [-16.056184, 15.043201]}, "properties": {"id": "centre_sante-105", "type": "centre_sante", "type_label": "Centre de santé", "nom": "CS MAME THIERNO BIRAHIM MBACKE (CS DAROU MOUSTY)", "region": {"nom": "LOUGA", "code": 8}, "departement": {"nom": "KEBEMER", "code": 81}, "commune": {"nom": "DAROU MOUSTY", "code": 81201}, "communaute_rurale": {"nom": "DAROU MOUSTY", "code": 8120102}, "quartier_village": "DAROU MOUSTY", "milieu": "RURAL", "thematique": "SANTE", "type_qvh": "VILLAGE"}}, {"type": "Feature", "geometry": {"type": "Point", "coordinates": [-13.253973, 15.653235]}, "properties": {"id": "centre_sante-106", "type": "centre_sante", "type_label": "Centre de santé", "nom": "CS MATAM", "region": {"nom": "MATAM", "code": 11}, "departement": {"nom": "MATAM", "code": 111}, "commune": {"nom": "MATAM", "code": 111101}, "communaute_rurale": {"nom": "MATAM", "code": 11110100}, "quartier_village": "GOUREL SERIGNE", "milieu": "URBAIN", "thematique": "SANTE", "type_qvh": "QUARTIER"}}, {"type": "Feature", "geometry": {"type": "Point", "coordinates": [-13.959529, 15.304293]}, "properties": {"id": "centre_sante-107", "type": "centre_sante", "type_label": "Centre de santé", "nom": "CS RANEROU", "region": {"nom": "MATAM", "code": 11}, "departement": {"nom": "RANEROU FERLO", "code": 113}, "commune": {"nom": "RANEROU FERLO", "code": 113101}, "communaute_rurale": {"nom": "RANEROU FERLO", "code": 11310100}, "quartier_village": "RANEROU", "milieu": "URBAIN", "thematique": "SANTE", "type_qvh": "QUARTIER"}}, {"type": "Feature", "geometry": {"type": "Point", "coordinates": [-13.606755, 15.965422]}, "properties": {"id": "centre_sante-108", "type": "centre_sante", "type_label": "Centre de santé", "nom": "CS THILOGNE", "region": {"nom": "MATAM", "code": 11}, "departement": {"nom": "MATAM", "code": 111}, "commune": {"nom": "AGNAM CIVOL", "code": 111201}, "communaute_rurale": {"nom": "THILOGNE", "code": 11120105}, "quartier_village": "THILOGNE TOKOSSEL", "milieu": "RURAL", "thematique": "SANTE", "type_qvh": "QUARTIER"}}, {"type": "Feature", "geometry": {"type": "Point", "coordinates": [-13.02797, 15.354045]}, "properties": {"id": "centre_sante-109", "type": "centre_sante", "type_label": "Centre de santé", "nom": "CS HAMADY HOUNARE", "region": {"nom": "MATAM", "code": 11}, "departement": {"nom": "KANEL", "code": 112}, "commune": {"nom": "WOURO SIDY", "code": 112202}, "communaute_rurale": {"nom": "HAMADY HOUNARE", "code": 11220203}, "quartier_village": "GOREE", "milieu": "URBAIN", "thematique": "SANTE", "type_qvh": "QUARTIER"}}, {"type": "Feature", "geometry": {"type": "Point", "coordinates": [-12.866871, 15.278002]}, "properties": {"id": "centre_sante-110", "type": "centre_sante", "type_label": "Centre de santé", "nom": "CS WAOUNDE", "region": {"nom": "MATAM", "code": 11}, "departement": {"nom": "KANEL", "code": 112}, "commune": {"nom": "ORKADIERE", "code": 112201}, "communaute_rurale": {"nom": "WAOUNDE", "code": 11220106}, "quartier_village": "WAOUNDE I", "milieu": "URBAIN", "thematique": "SANTE", "type_qvh": "QUARTIER"}}, {"type": "Feature", "geometry": {"type": "Point", "coordinates": [-13.185288, 15.485473]}, "properties": {"id": "centre_sante-111", "type": "centre_sante", "type_label": "Centre de santé", "nom": "CS KANEL", "region": {"nom": "MATAM", "code": 11}, "departement": {"nom": "KANEL", "code": 112}, "commune": {"nom": "KANEL", "code": 112101}, "communaute_rurale": {"nom": "KANEL", "code": 11210100}, "quartier_village": "KANEL II", "milieu": "URBAIN", "thematique": "SANTE", "type_qvh": "QUARTIER"}}, {"type": "Feature", "geometry": {"type": "Point", "coordinates": [-13.130001, 15.356809]}, "properties": {"id": "centre_sante-112", "type": "centre_sante", "type_label": "Centre de santé", "nom": "CS SINTHIOU BAMAMBE", "region": {"nom": "MATAM", "code": 11}, "departement": {"nom": "KANEL", "code": 112}, "commune": {"nom": "WOURO SIDY", "code": 112202}, "communaute_rurale": {"nom": "SINTHIOU BAMAMBE BANADJI", "code": 11220204}, "quartier_village": "NIAROUWAL II", "milieu": "URBAIN", "thematique": "SANTE", "type_qvh": "QUARTIER"}}, {"type": "Feature", "geometry": {"type": "Point", "coordinates": [-16.503065, 16.034591]}, "properties": {"id": "centre_sante-113", "type": "centre_sante", "type_label": "Centre de santé", "nom": "CS GARNISON NORD", "region": {"nom": "SAINT-LOUIS", "code": 4}, "departement": {"nom": "SAINT-LOUIS", "code": 43}, "commune": {"nom": "SAINT-LOUIS", "code": 43101}, "communaute_rurale": {"nom": "SAINT-LOUIS", "code": 4310100}, "quartier_village": "HAUT NORD", "milieu": "URBAIN", "thematique": "SANTE", "type_qvh": "QUARTIER"}}, {"type": "Feature", "geometry": {"type": "Point", "coordinates": [-16.50835, 16.005058]}, "properties": {"id": "centre_sante-114", "type": "centre_sante", "type_label": "Centre de santé", "nom": "CS HYDROBASE", "region": {"nom": "SAINT-LOUIS", "code": 4}, "departement": {"nom": "SAINT-LOUIS", "code": 43}, "commune": {"nom": "SAINT-LOUIS", "code": 43101}, "communaute_rurale": {"nom": "SAINT-LOUIS", "code": 4310100}, "quartier_village": "HYDROBASE", "milieu": "URBAIN", "thematique": "SANTE", "type_qvh": "QUARTIER"}}, {"type": "Feature", "geometry": {"type": "Point", "coordinates": [-16.493223, 16.010929]}, "properties": {"id": "centre_sante-115", "type": "centre_sante", "type_label": "Centre de santé", "nom": "CS SAINT-LOUIS", "region": {"nom": "SAINT-LOUIS", "code": 4}, "departement": {"nom": "SAINT-LOUIS", "code": 43}, "commune": {"nom": "SAINT-LOUIS", "code": 43101}, "communaute_rurale": {"nom": "SAINT-LOUIS", "code": 4310100}, "quartier_village": "EAUX CLAIRES", "milieu": "URBAIN", "thematique": "SANTE", "type_qvh": "QUARTIER"}}, {"type": "Feature", "geometry": {"type": "Point", "coordinates": [-16.270416, 15.919307]}, "properties": {"id": "centre_sante-116", "type": "centre_sante", "type_label": "Centre de santé", "nom": "CS MPAL", "region": {"nom": "SAINT-LOUIS", "code": 4}, "departement": {"nom": "SAINT-LOUIS", "code": 43}, "commune": {"nom": "RAO", "code": 43201}, "communaute_rurale": {"nom": "MPAL", "code": 4320103}, "quartier_village": "TAK", "milieu": "URBAIN", "thematique": "SANTE", "type_qvh": "QUARTIER"}}, {"type": "Feature", "geometry": {"type": "Point", "coordinates": [-15.513084, 16.510648]}, "properties": {"id": "centre_sante-117", "type": "centre_sante", "type_label": "Centre de santé", "nom": "CS DAGANA", "region": {"nom": "SAINT-LOUIS", "code": 4}, "departement": {"nom": "DAGANA", "code": 41}, "commune": {"nom": "DAGANA", "code": 41101}, "communaute_rurale": {"nom": "DAGANA", "code": 4110100}, "quartier_village": "SECTEUR IV", "milieu": "URBAIN", "thematique": "SANTE", "type_qvh": "QUARTIER"}}, {"type": "Feature", "geometry": {"type": "Point", "coordinates": [-15.688947, 16.469035]}, "properties": {"id": "centre_sante-118", "type": "centre_sante", "type_label": "Centre de santé", "nom": "CS RICHARD TOLL", "region": {"nom": "SAINT-LOUIS", "code": 4}, "departement": {"nom": "DAGANA", "code": 41}, "commune": {"nom": "RICHARD-TOLL", "code": 41102}, "communaute_rurale": {"nom": "RICHARD-TOLL", "code": 4110200}, "quartier_village": "GAE II", "milieu": "URBAIN", "thematique": "SANTE", "type_qvh": "QUARTIER"}}, {"type": "Feature", "geometry": {"type": "Point", "coordinates": [-15.685153, 16.453355]}, "properties": {"id": "centre_sante-119", "type": "centre_sante", "type_label": "Centre de santé", "nom": "CS RICHARD-TOLL", "region": {"nom": "SAINT-LOUIS", "code": 4}, "departement": {"nom": "DAGANA", "code": 41}, "commune": {"nom": "RICHARD-TOLL", "code": 41102}, "communaute_rurale": {"nom": "RICHARD-TOLL", "code": 4110200}, "quartier_village": "THIABAKH", "milieu": "URBAIN", "thematique": "SANTE", "type_qvh": "QUARTIER"}}, {"type": "Feature", "geometry": {"type": "Point", "coordinates": [-14.953021, 16.642917]}, "properties": {"id": "centre_sante-120", "type": "centre_sante", "type_label": "Centre de santé", "nom": "CS PODOR", "region": {"nom": "SAINT-LOUIS", "code": 4}, "departement": {"nom": "PODOR", "code": 42}, "commune": {"nom": "PODOR", "code": 42101}, "communaute_rurale": {"nom": "PODOR", "code": 4210100}, "quartier_village": "SINTHIANE", "milieu": "URBAIN", "thematique": "SANTE", "type_qvh": "QUARTIER"}}, {"type": "Feature", "geometry": {"type": "Point", "coordinates": [-14.655035, 16.508895]}, "properties": {"id": "centre_sante-121", "type": "centre_sante", "type_label": "Centre de santé", "nom": "CENTRE HEMODIALYSE NDIOUM", "region": {"nom": "SAINT-LOUIS", "code": 4}, "departement": {"nom": "PODOR", "code": 42}, "commune": {"nom": "NDIOUM", "code": 42102}, "communaute_rurale": {"nom": "NDIOUM", "code": 4210200}, "quartier_village": "BASE", "milieu": "URBAIN", "thematique": "SANTE", "type_qvh": "QUARTIER"}}, {"type": "Feature", "geometry": {"type": "Point", "coordinates": [-15.90765, 16.185742]}, "properties": {"id": "centre_sante-122", "type": "centre_sante", "type_label": "Centre de santé", "nom": "CS NGNITH", "region": {"nom": "SAINT-LOUIS", "code": 4}, "departement": {"nom": "DAGANA", "code": 41}, "commune": {"nom": "NDIAYE", "code": 41202}, "communaute_rurale": {"nom": "NGNITH", "code": 4120202}, "quartier_village": "NGNITH", "milieu": "RURAL", "thematique": "SANTE", "type_qvh": "VILLAGE"}}, {"type": "Feature", "geometry": {"type": "Point", "coordinates": [-14.312898, 16.3806]}, "properties": {"id": "centre_sante-123", "type": "centre_sante", "type_label": "Centre de santé", "nom": "CS AERE LAO", "region": {"nom": "SAINT-LOUIS", "code": 4}, "departement": {"nom": "PODOR", "code": 42}, "commune": {"nom": "CAS CAS", "code": 42201}, "communaute_rurale": {"nom": "AERE LAO", "code": 4220104}, "quartier_village": "MBISSANE", "milieu": "URBAIN", "thematique": "SANTE", "type_qvh": "QUARTIER"}}, {"type": "Feature", "geometry": {"type": "Point", "coordinates": [-13.956204, 16.101434]}, "properties": {"id": "centre_sante-124", "type": "centre_sante", "type_label": "Centre de santé", "nom": "CS PETE", "region": {"nom": "SAINT-LOUIS", "code": 4}, "departement": {"nom": "PODOR", "code": 42}, "commune": {"nom": "SALDE", "code": 42202}, "communaute_rurale": {"nom": "PETE", "code": 4220204}, "quartier_village": "SINTHIANE II", "milieu": "URBAIN", "thematique": "SANTE", "type_qvh": "QUARTIER"}}, {"type": "Feature", "geometry": {"type": "Point", "coordinates": [-16.197357, 15.109955]}, "properties": {"id": "centre_sante-125", "type": "centre_sante", "type_label": "Centre de santé", "nom": "CS MBACKE CADIOR", "region": {"nom": "LOUGA", "code": 8}, "departement": {"nom": "KEBEMER", "code": 81}, "commune": {"nom": "DAROU MOUSTY", "code": 81201}, "communaute_rurale": {"nom": "MBACKE CADIOR", "code": 8120107}, "quartier_village": "MBACKE CADIOR", "milieu": "RURAL", "thematique": "SANTE", "type_qvh": "VILLAGE"}}, {"type": "Feature", "geometry": {"type": "Point", "coordinates": [-16.660851, 14.178767]}, "properties": {"id": "centre_sante-126", "type": "centre_sante", "type_label": "Centre de santé", "nom": "CS DIOFFIOR", "region": {"nom": "FATICK", "code": 9}, "departement": {"nom": "FATICK", "code": 91}, "commune": {"nom": "DIOFFIOR", "code": 91102}, "communaute_rurale": {"nom": "DIOFFIOR", "code": 9110200}, "quartier_village": "DIONGFA", "milieu": "URBAIN", "thematique": "SANTE", "type_qvh": "QUARTIER"}}, {"type": "Feature", "geometry": {"type": "Point", "coordinates": [-16.370794, 13.878506]}, "properties": {"id": "centre_sante-127", "type": "centre_sante", "type_label": "Centre de santé", "nom": "CS SOKONE", "region": {"nom": "FATICK", "code": 9}, "departement": {"nom": "FOUNDIOUGNE", "code": 92}, "commune": {"nom": "SOKONE", "code": 92102}, "communaute_rurale": {"nom": "SOKONE", "code": 9210200}, "quartier_village": "MEDINA", "milieu": "URBAIN", "thematique": "SANTE", "type_qvh": "QUARTIER"}}, {"type": "Feature", "geometry": {"type": "Point", "coordinates": [-17.387823, 14.77011]}, "properties": {"id": "centre_sante-128", "type": "centre_sante", "type_label": "Centre de santé", "nom": "CS MATERNELLE ET INFANTILE", "region": {"nom": "DAKAR", "code": 1}, "departement": {"nom": "GUEDIAWAYE", "code": 14}, "commune": {"nom": "VILLE DE GUEDIAWAYE", "code": 14301}, "communaute_rurale": {"nom": "SAM NOTAIRE", "code": 1430112}, "quartier_village": "NOTAIRE SUD", "milieu": "URBAIN", "thematique": "SANTE", "type_qvh": "QUARTIER"}}]}